TRANSPORTER-10 OBJECT AD
1 59125U 24043AD  26068.86032889  .00011954  00000+0  36311-3 0  9997
2 59125  97.5470 207.3753 0008984 221.4908 138.5653 15.34189901112026
STARLINK-32469          
1 61721U 24196Q   26068.38946693  .00000582  00000+0  31791-4 0  9998
2 61721  53.1601 102.5175 0001054  81.5233 278.5887 15.30192485 77117
